{"type": "FeatureCollection", "features": [ {"type": "Feature", "properties": {"norad_id": 36273, "name": "FENGYUN 1C DEB", "group": "fengyun-1c-debris", "lat": -24.18755112337595, "lon": -138.41043155677215, "alt_km": 773.9069512060523, "timestamp": "2025-12-13T16:48:32.998466+00:00", "meta": {"OBJECT_NAME": "FENGYUN 1C DEB", "OBJECT_ID": "1999-025DXA", "EPOCH": "2025-12-10T21:07:00.418080", "MEAN_MOTION": 14.16564043, "ECCENTRICITY": 0.0096501, "INCLINATION": 99.6045, "RA_OF_ASC_NODE": 214.1863, "ARG_OF_PERICENTER": 353.8475, "MEAN_ANOMALY": 6.1504, "EPHEMERIS_TYPE": 0, "CLASSIFICATION_TYPE": "U", "NORAD_CAT_ID": 36273, "ELEMENT_SET_NO": 999, "REV_AT_EPOCH": 66207, "BSTAR": 0.00042955, "MEAN_MOTION_DOT": 8.45e-06, "MEAN_MOTION_DDOT": 0}, "tle": {"line1": "1 36273U 99025DXA 25344.87986595  .00000845  00000+0  42955-3 0  9995", "line2": "2 36273  99.6045 214.1863 0096501 353.8475   6.1504 14.16564043662078"}}, "geometry": {"type": "Point", "coordinates": [-138.41043155677215, -24.18755112337595]}}, {"type": "Feature", "properties": {"norad_id": 36274, "name": "FENGYUN 1C DEB", "group": "fengyun-1c-debris", "lat": 13.850474859005523, "lon": 59.62111659444086, "alt_km": 851.8375702405019, "timestamp": "2025-12-13T16:48:32.998476+00:00", "meta": {"OBJECT_NAME": "FENGYUN 1C DEB", "OBJECT_ID": "1999-025DXB", "EPOCH": "2025-12-09T11:35:55.514688", "MEAN_MOTION": 14.23402311, "ECCENTRICITY": 0.00622561, "INCLINATION": 99.139, "RA_OF_ASC_NODE": 57.5181, "ARG_OF_PERICENTER": 239.4806, "MEAN_ANOMALY": 136.1937, "EPHEMERIS_TYPE": 0, "CLASSIFICATION_TYPE": "U", "NORAD_CAT_ID": 36274, "ELEMENT_SET_NO": 999, "REV_AT_EPOCH": 62939, "BSTAR": 0.0044809329, "MEAN_MOTION_DOT": 0.00010342, "MEAN_MOTION_DDOT": 0}, "tle": {"line1": "1 36274U 99025DXB 25343.48328142  .00010342  00000+0  44809-2 0  9992", "line2": "2 36274  99.1390  57.5181 0062256 239.4806 136.1937 14.23402311629395"}}, "geometry": {"type": "Point", "coordinates": [59.62111659444086, 13.850474859005523]}}, {"type": "Feature", "properties": {"norad_id": 36278, "name": "FENGYUN 1C DEB", "group": "fengyun-1c-debris", "lat": -40.14131129585814, "lon": 78.22727364495198, "alt_km": 823.5778530202533, "timestamp": "2025-12-13T16:48:32.998486+00:00", "meta": {"OBJECT_NAME": "FENGYUN 1C DEB", "OBJECT_ID": "1999-025DXF", "EPOCH": "2025-12-04T01:21:08.443872", "MEAN_MOTION": 14.17353569, "ECCENTRICITY": 0.00613363, "INCLINATION": 99.1236, "RA_OF_ASC_NODE": 256.1206, "ARG_OF_PERICENTER": 315.5831, "MEAN_ANOMALY": 44.0433, "EPHEMERIS_TYPE": 0, "CLASSIFICATION_TYPE": "U", "NORAD_CAT_ID": 36278, "ELEMENT_SET_NO": 999, "REV_AT_EPOCH": 93353, "BSTAR": 0.0008477729, "MEAN_MOTION_DOT": 1.7e-05, "MEAN_MOTION_DDOT": 0}, "tle": {"line1": "1 36278U 99025DXF 25338.05634773  .00001700  00000+0  84777-3 0  9990", "line2": "2 36278  99.1236 256.1206 0061336 315.5831  44.0433 14.17353569933530"}}, "geometry": {"type": "Point", "coordinates": [78.22727364495198, -40.14131129585814]}}, {"type": "Feature", "properties": {"norad_id": 36279, "name": "FENGYUN 1C DEB", "group": "fengyun-1c-debris", "lat": -55.29000927354641, "lon": 133.10656596275788, "alt_km": 895.69011726795, "timestamp": "2025-12-13T16:48:32.998497+00:00", "meta": {"OBJECT_NAME": "FENGYUN 1C DEB", "OBJECT_ID": "1999-025DXG", "EPOCH": "2025-12-08T04:59:58.612992", "MEAN_MOTION": 14.147242, "ECCENTRICITY": 0.00630677, "INCLINATION": 98.5605, "RA_OF_ASC_NODE": 320.3989, "ARG_OF_PERICENTER": 68.1387, "MEAN_ANOMALY": 292.6479, "EPHEMERIS_TYPE": 0, "CLASSIFICATION_TYPE": "U", "NORAD_CAT_ID": 36279, "ELEMENT_SET_NO": 999, "REV_AT_EPOCH": 88975, "BSTAR": 0.00024838235, "MEAN_MOTION_DOT": 4.46e-06, "MEAN_MOTION_DDOT": 0}, "tle": {"line1": "1 36279U 99025DXG 25342.20831728  .00000446  00000+0  24838-3 0  9990", "line2": "2 36279  98.5605 320.3989 0063067  68.1387 292.6479 14.14724200889752"}}, "geometry": {"type": "Point", "coordinates": [133.10656596275788, -55.29000927354641]}}, {"type": "Feature", "properties": {"norad_id": 36280, "name": "FENGYUN 1C DEB", "group": "fengyun-1c-debris", "lat": -74.3685154296296, "lon": 163.19417487884144, "alt_km": 911.8395407699572, "timestamp": "2025-12-13T16:48:32.998506+00:00", "meta": {"OBJECT_NAME": "FENGYUN 1C DEB", "OBJECT_ID": "1999-025DXH", "EPOCH": "2025-12-12T19:59:31.607808", "MEAN_MOTION": 14.0973952, "ECCENTRICITY": 0.00631457, "INCLINATION": 98.7676, "RA_OF_ASC_NODE": 15.8238, "ARG_OF_PERICENTER": 65.2439, "MEAN_ANOMALY": 112.369, "EPHEMERIS_TYPE": 0, "CLASSIFICATION_TYPE": "U", "NORAD_CAT_ID": 36280, "ELEMENT_SET_NO": 999, "REV_AT_EPOCH": 86355, "BSTAR": 0.0014735852, "MEAN_MOTION_DOT": 2.593e-05, "MEAN_MOTION_DDOT": 0}, "tle": {"line1": "1 36280U 99025DXH 25346.83300472  .00002593  00000+0  14736-2 0  9992", "line2": "2 36280  98.7676  15.8238 0063145  65.2439 112.3690 14.09739520863558"}}, "geometry": {"type": "Point", "coordinates": [163.19417487884144, -74.3685154296296]}}, {"type": "Feature", "properties": {"norad_id": 36281, "name": "FENGYUN 1C DEB", "group": "fengyun-1c-debris", "lat": 23.245180118087205, "lon": -94.42165592597293, "alt_km": 1008.2019807846018, "timestamp": "2025-12-13T16:48:32.998517+00:00", "meta": {"OBJECT_NAME": "FENGYUN 1C DEB", "OBJECT_ID": "1999-025DXJ", "EPOCH": "2025-12-12T12:26:52.427904", "MEAN_MOTION": 13.60247395, "ECCENTRICITY": 0.02901241, "INCLINATION": 99.2579, "RA_OF_ASC_NODE": 268.4761, "ARG_OF_PERICENTER": 111.4244, "MEAN_ANOMALY": 251.8108, "EPHEMERIS_TYPE": 0, "CLASSIFICATION_TYPE": "U", "NORAD_CAT_ID": 36281, "ELEMENT_SET_NO": 999, "REV_AT_EPOCH": 84514, "BSTAR": 0.0042115455, "MEAN_MOTION_DOT": 4.13e-05, "MEAN_MOTION_DDOT": 0}, "tle": {"line1": "1 36281U 99025DXJ 25346.51866236  .00004130  00000+0  42115-2 0  9994", "line2": "2 36281  99.2579 268.4761 0290124 111.4244 251.8108 13.60247395845149"}}, "geometry": {"type": "Point", "coordinates": [-94.42165592597293, 23.245180118087205]}}, {"type": "Feature", "properties": {"norad_id": 36283, "name": "FENGYUN 1C DEB", "group": "fengyun-1c-debris", "lat": 0.257635992060808, "lon": -47.03558126910162, "alt_km": 518.1145870737373, "timestamp": "2025-12-13T16:48:32.998527+00:00", "meta": {"OBJECT_NAME": "FENGYUN 1C DEB", "OBJECT_ID": "1999-025DXL", "EPOCH": "2025-12-12T04:08:21.741504", "MEAN_MOTION": 15.06204113, "ECCENTRICITY": 0.00680236, "INCLINATION": 99.4211, "RA_OF_ASC_NODE": 311.1422, "ARG_OF_PERICENTER": 52.2537, "MEAN_ANOMALY": 308.4822, "EPHEMERIS_TYPE": 0, "CLASSIFICATION_TYPE": "U", "NORAD_CAT_ID": 36283, "ELEMENT_SET_NO": 999, "REV_AT_EPOCH": 66657, "BSTAR": 0.0025072504, "MEAN_MOTION_DOT": 0.00038819, "MEAN_MOTION_DDOT": 0}, "tle": {"line1": "1 36283U 99025DXL 25346.17247386  .00038819  00000+0  25073-2 0  9992", "line2": "2 36283  99.4211 311.1422 0068023  52.2537 308.4822 15.06204113666577"}}, "geometry": {"type": "Point", "coordinates": [-47.03558126910162, 0.257635992060808]}}, {"type": "Feature", "properties": {"norad_id": 36644, "name": "FENGYUN 1C DEB", "group": "fengyun-1c-debris", "lat": -31.16329615633932, "lon": -58.972591338396654, "alt_km": 866.482981092121, "timestamp": "2025-12-13T16:48:32.998537+00:00", "meta": {"OBJECT_NAME": "FENGYUN 1C DEB", "OBJECT_ID": "1999-025DXN", "EPOCH": "2025-12-06T15:56:19.275936", "MEAN_MOTION": 13.59167664, "ECCENTRICITY": 0.02857814, "INCLINATION": 98.4234, "RA_OF_ASC_NODE": 120.1104, "ARG_OF_PERICENTER": 196.1478, "MEAN_ANOMALY": 163.0413, "EPHEMERIS_TYPE": 0, "CLASSIFICATION_TYPE": "U", "NORAD_CAT_ID": 36644, "ELEMENT_SET_NO": 999, "REV_AT_EPOCH": 61485, "BSTAR": 0.0026178612, "MEAN_MOTION_DOT": 2.485e-05, "MEAN_MOTION_DDOT": 0}, "tle": {"line1": "1 36644U 99025DXN 25340.66411199  .00002485  00000+0  26179-2 0  9994", "line2": "2 36644  98.4234 120.1104 0285781 196.1478 163.0413 13.59167664614851"}}, "geometry": {"type": "Point", "coordinates": [-58.972591338396654, -31.16329615633932]}}, {"type": "Feature", "properties": {"norad_id": 36647, "name": "FENGYUN 1C DEB", "group": "fengyun-1c-debris", "lat": 68.71660862571574, "lon": -35.9531274180431, "alt_km": 1099.955920243111, "timestamp": "2025-12-13T16:48:32.998546+00:00", "meta": {"OBJECT_NAME": "FENGYUN 1C DEB", "OBJECT_ID": "1999-025DXR", "EPOCH": "2025-12-12T16:03:45.149184", "MEAN_MOTION": 13.88818292, "ECCENTRICITY": 0.02395033, "INCLINATION": 96.1208, "RA_OF_ASC_NODE": 127.3787, "ARG_OF_PERICENTER": 300.0828, "MEAN_ANOMALY": 57.6784, "EPHEMERIS_TYPE": 0, "CLASSIFICATION_TYPE": "U", "NORAD_CAT_ID": 36647, "ELEMENT_SET_NO": 999, "REV_AT_EPOCH": 30411, "BSTAR": 0.003742639, "MEAN_MOTION_DOT": 5.663e-05, "MEAN_MOTION_DDOT": 0}, "tle": {"line1": "1 36647U 99025DXR 25346.66927256  .00005663  00000+0  37426-2 0  9997", "line2": "2 36647  96.1208 127.3787 0239503 300.0828  57.6784 13.88818292304118"}}, "geometry": {"type": "Point", "coordinates": [-35.9531274180431, 68.71660862571574]}}, {"type": "Feature", "properties": {"norad_id": 36652, "name": "FENGYUN 1C DEB", "group": "fengyun-1c-debris", "lat": 39.30456891180332, "lon": 62.48061149671713, "alt_km": 788.9909747006141, "timestamp": "2025-12-13T16:48:32.998557+00:00", "meta": {"OBJECT_NAME": "FENGYUN 1C DEB", "OBJECT_ID": "1999-025DXW", "EPOCH": "2025-12-12T11:55:57.258336", "MEAN_MOTION": 14.2281347, "ECCENTRICITY": 0.00506117, "INCLINATION": 98.9405, "RA_OF_ASC_NODE": 68.664, "ARG_OF_PERICENTER": 353.9416, "MEAN_ANOMALY": 6.1143, "EPHEMERIS_TYPE": 0, "CLASSIFICATION_TYPE": "U", "NORAD_CAT_ID": 36652, "ELEMENT_SET_NO": 999, "REV_AT_EPOCH": 64321, "BSTAR": 0.0025683974, "MEAN_MOTION_DOT": 5.798e-05, "MEAN_MOTION_DDOT": 0}, "tle": {"line1": "1 36652U 99025DXW 25346.49719049  .00005798  00000+0  25684-2 0  9995", "line2": "2 36652  98.9405  68.6640 0050611 353.9416   6.1143 14.22813470643216"}}, "geometry": {"type": "Point", "coordinates": [62.48061149671713, 39.30456891180332]}}]}